STARLINK-36898          
1 68002U 26039S   26087.58335648  .00035229  00000+0  12533-2 0  9997
2 68002  42.9996 302.5419 0002127 247.6713 315.7545 15.28362303  5911
STARLINK-36862          
1 68003U 26039T   26087.58335648  .00046832  00000+0  16583-2 0  9999
2 68003  42.9994 302.7271 0001159 245.2107 242.3191 15.28405196  5913
STARLINK-36888          
1 68004U 26039U   26087.58335648  .00045528  00000+0  16127-2 0  9995
2 68004  42.9996 302.7413 0001724 258.4410 224.1827 15.28404548  5919
STARLINK-36910          
1 68005U 26039V   26087.58335648  .00042120  00000+0  14937-2 0  9998
2 68005  42.9992 302.4813 0001873 256.0267 331.9812 15.28397753  5916
STARLINK-36889          
1 68006U 26039W   26087.58335648 -.01817401  00000+0 -58451-1 0  9992
2 68006  42.9994 302.4144 0001287 248.7043  10.1323 15.34902848  5912
STARLINK-36592          
1 68007U 26039X   26087.58335648 -.00503566  00000+0 -18880-1 0  9998
2 68007  42.9997 302.3319 0001426 257.5604  32.1165 15.28739576  5912
STARLINK-36911          
1 68008U 26039Y   26087.58335648 -.01828190  00000+0 -62515-1 0  9997
2 68008  42.9990 302.2660 0001490 245.3536  72.7645 15.33007253  5913
STARLINK-36956          
1 68009U 26039Z   26087.58335648 -.01830529  00000+0 -58350-1 0  9999
2 68009  42.9990 302.2573 0001515 246.3395  75.9775 15.35202508  5910
STARLINK-36953          
1 68010U 26039AA  26087.58335648  .00060497  00000+0  21967-2 0  9992
2 68010  42.9991 302.0356 0002039 272.2196 136.5405 15.27478063  5915
STARLINK-36991          
1 68011U 26039AB  26087.62104921  .00107439  00000+0  18127-2 0  9998
2 68011  42.9983 302.4648 0002115 264.1554  95.9065 15.50570079  4597
STARLINK-36936          
1 68012U 26039AC  26087.58335648 -.01910138  00000+0 -50958-1 0  9994
2 68012  43.0006 302.0712 0001675 255.1285 142.5158 15.40761478  5918
STARLINK-36967          
1 68013U 26039AD  26086.90713377  .00110139  00000+0  18536-2 0  9996
2 68013  42.9999 306.5649 0001653 259.5586 100.5087 15.50628686  4484
STARLINK-36985          
1 68014U 26039AE  26087.58335648 -.01087855  00000+0 -42264-1 0  9998
2 68014  42.9992 301.9307 0001704 249.9847 200.8781 15.28305995  5912
STARLINK-36335          
1 68015U 26040A   26086.84933361  .00181507  00000+0  11885-2 0  9997
2 68015  97.2870  36.1844 0001275  92.9276 267.2135 15.75259164  4219
STARLINK-36923          
1 68016U 26040B   26087.61060660  .00331310  00000+0  21283-2 0  9999
2 68016  97.2863  36.9876 0002553  65.1799 294.9731 15.75284237  4338
STARLINK-36568          
1 68017U 26040C   26087.60990358  .00236712  00000+0  15398-2 0  9995
2 68017  97.2884  36.9884 0002837  74.5215 285.6363 15.75255282  4339
