[{"OBJECT_NAME":"STARLINK-36898","OBJECT_ID":"2026-039S","EPOCH":"2026-03-28T14:00:01.999872","MEAN_MOTION":15.28362303,"ECCENTRICITY":0.00021273,"INCLINATION":42.9996,"RA_OF_ASC_NODE":302.5419,"ARG_OF_PERICENTER":247.6713,"MEAN_ANOMALY":315.7545,"EPHEMERIS_TYPE":0,"CLASSIFICATION_TYPE":"U","NORAD_CAT_ID":68002,"ELEMENT_SET_NO":999,"REV_AT_EPOCH":591,"BSTAR":0.0012533411,"MEAN_MOTION_DOT":0.00035229,"MEAN_MOTION_DDOT":0},{"OBJECT_NAME":"STARLINK-36862","OBJECT_ID":"2026-039T","EPOCH":"2026-03-28T14:00:01.999872","MEAN_MOTION":15.28405196,"ECCENTRICITY":0.00011593,"INCLINATION":42.9994,"RA_OF_ASC_NODE":302.7271,"ARG_OF_PERICENTER":245.2107,"MEAN_ANOMALY":242.3191,"EPHEMERIS_TYPE":0,"CLASSIFICATION_TYPE":"U","NORAD_CAT_ID":68003,"ELEMENT_SET_NO":999,"REV_AT_EPOCH":591,"BSTAR":0.0016583114,"MEAN_MOTION_DOT":0.00046832,"MEAN_MOTION_DDOT":0},{"OBJECT_NAME":"STARLINK-36888","OBJECT_ID":"2026-039U","EPOCH":"2026-03-28T14:00:01.999872","MEAN_MOTION":15.28404548,"ECCENTRICITY":0.00017244,"INCLINATION":42.9996,"RA_OF_ASC_NODE":302.7413,"ARG_OF_PERICENTER":258.441,"MEAN_ANOMALY":224.1827,"EPHEMERIS_TYPE":0,"CLASSIFICATION_TYPE":"U","NORAD_CAT_ID":68004,"ELEMENT_SET_NO":999,"REV_AT_EPOCH":591,"BSTAR":0.0016126803,"MEAN_MOTION_DOT":0.00045528,"MEAN_MOTION_DDOT":0},{"OBJECT_NAME":"STARLINK-36910","OBJECT_ID":"2026-039V","EPOCH":"2026-03-28T14:00:01.999872","MEAN_MOTION":15.28397753,"ECCENTRICITY":0.00018733,"INCLINATION":42.9992,"RA_OF_ASC_NODE":302.4813,"ARG_OF_PERICENTER":256.0267,"MEAN_ANOMALY":331.9812,"EPHEMERIS_TYPE":0,"CLASSIFICATION_TYPE":"U","NORAD_CAT_ID":68005,"ELEMENT_SET_NO":999,"REV_AT_EPOCH":591,"BSTAR":0.0014936704,"MEAN_MOTION_DOT":0.0004212,"MEAN_MOTION_DDOT":0},{"OBJECT_NAME":"STARLINK-36889","OBJECT_ID":"2026-039W","EPOCH":"2026-03-28T14:00:01.999872","MEAN_MOTION":15.34902848,"ECCENTRICITY":0.0001287,"INCLINATION":42.9994,"RA_OF_ASC_NODE":302.4144,"ARG_OF_PERICENTER":248.7043,"MEAN_ANOMALY":10.1323,"EPHEMERIS_TYPE":0,"CLASSIFICATION_TYPE":"U","NORAD_CAT_ID":68006,"ELEMENT_SET_NO":999,"REV_AT_EPOCH":591,"BSTAR":-0.05845066,"MEAN_MOTION_DOT":-0.01817401,"MEAN_MOTION_DDOT":0},{"OBJECT_NAME":"STARLINK-36592","OBJECT_ID":"2026-039X","EPOCH":"2026-03-28T14:00:01.999872","MEAN_MOTION":15.28739576,"ECCENTRICITY":0.00014269,"INCLINATION":42.9997,"RA_OF_ASC_NODE":302.3319,"ARG_OF_PERICENTER":257.5604,"MEAN_ANOMALY":32.1165,"EPHEMERIS_TYPE":0,"CLASSIFICATION_TYPE":"U","NORAD_CAT_ID":68007,"ELEMENT_SET_NO":999,"REV_AT_EPOCH":591,"BSTAR":-0.018880146,"MEAN_MOTION_DOT":-0.00503566,"MEAN_MOTION_DDOT":0},{"OBJECT_NAME":"STARLINK-36911","OBJECT_ID":"2026-039Y","EPOCH":"2026-03-28T14:00:01.999872","MEAN_MOTION":15.33007253,"ECCENTRICITY":0.00014907,"INCLINATION":42.999,"RA_OF_ASC_NODE":302.266,"ARG_OF_PERICENTER":245.3536,"MEAN_ANOMALY":72.7645,"EPHEMERIS_TYPE":0,"CLASSIFICATION_TYPE":"U","NORAD_CAT_ID":68008,"ELEMENT_SET_NO":999,"REV_AT_EPOCH":591,"BSTAR":-0.062515214,"MEAN_MOTION_DOT":-0.0182819,"MEAN_MOTION_DDOT":0},{"OBJECT_NAME":"STARLINK-36956","OBJECT_ID":"2026-039Z","EPOCH":"2026-03-28T14:00:01.999872","MEAN_MOTION":15.35202508,"ECCENTRICITY":0.00015151,"INCLINATION":42.999,"RA_OF_ASC_NODE":302.2573,"ARG_OF_PERICENTER":246.3395,"MEAN_ANOMALY":75.9775,"EPHEMERIS_TYPE":0,"CLASSIFICATION_TYPE":"U","NORAD_CAT_ID":68009,"ELEMENT_SET_NO":999,"REV_AT_EPOCH":591,"BSTAR":-0.058349916,"MEAN_MOTION_DOT":-0.01830529,"MEAN_MOTION_DDOT":0},{"OBJECT_NAME":"STARLINK-36953","OBJECT_ID":"2026-039AA","EPOCH":"2026-03-28T14:00:01.999872","MEAN_MOTION":15.27478063,"ECCENTRICITY":0.00020393,"INCLINATION":42.9991,"RA_OF_ASC_NODE":302.0356,"ARG_OF_PERICENTER":272.2196,"MEAN_ANOMALY":136.5405,"EPHEMERIS_TYPE":0,"CLASSIFICATION_TYPE":"U","NORAD_CAT_ID":68010,"ELEMENT_SET_NO":999,"REV_AT_EPOCH":591,"BSTAR":0.0021967216,"MEAN_MOTION_DOT":0.00060497,"MEAN_MOTION_DDOT":0},{"OBJECT_NAME":"STARLINK-36991","OBJECT_ID":"2026-039AB","EPOCH":"2026-03-28T14:54:18.651744","MEAN_MOTION":15.50570079,"ECCENTRICITY":0.00021159,"INCLINATION":42.9983,"RA_OF_ASC_NODE":302.4648,"ARG_OF_PERICENTER":264.1554,"MEAN_ANOMALY":95.9065,"EPHEMERIS_TYPE":0,"CLASSIFICATION_TYPE":"U","NORAD_CAT_ID":68011,"ELEMENT_SET_NO":999,"REV_AT_EPOCH":459,"BSTAR":0.0018126825,"MEAN_MOTION_DOT":0.00107439,"MEAN_MOTION_DDOT":0},{"OBJECT_NAME":"STARLINK-36936","OBJECT_ID":"2026-039AC","EPOCH":"2026-03-28T14:00:01.999872","MEAN_MOTION":15.40761478,"ECCENTRICITY":0.00016757,"INCLINATION":43.0006,"RA_OF_ASC_NODE":302.0712,"ARG_OF_PERICENTER":255.1285,"MEAN_ANOMALY":142.5158,"EPHEMERIS_TYPE":0,"CLASSIFICATION_TYPE":"U","NORAD_CAT_ID":68012,"ELEMENT_SET_NO":999,"REV_AT_EPOCH":591,"BSTAR":-0.050958281,"MEAN_MOTION_DOT":-0.01910138,"MEAN_MOTION_DDOT":0},{"OBJECT_NAME":"STARLINK-36967","OBJECT_ID":"2026-039AD","EPOCH":"2026-03-27T21:46:16.357728","MEAN_MOTION":15.50628686,"ECCENTRICITY":0.0001653,"INCLINATION":42.9999,"RA_OF_ASC_NODE":306.5649,"ARG_OF_PERICENTER":259.5586,"MEAN_ANOMALY":100.5087,"EPHEMERIS_TYPE":0,"CLASSIFICATION_TYPE":"U","NORAD_CAT_ID":68013,"ELEMENT_SET_NO":999,"REV_AT_EPOCH":448,"BSTAR":0.0018536,"MEAN_MOTION_DOT":0.00110139,"MEAN_MOTION_DDOT":0},{"OBJECT_NAME":"STARLINK-36985","OBJECT_ID":"2026-039AE","EPOCH":"2026-03-28T14:00:01.999872","MEAN_MOTION":15.28305995,"ECCENTRICITY":0.00017045,"INCLINATION":42.9992,"RA_OF_ASC_NODE":301.9307,"ARG_OF_PERICENTER":249.9847,"MEAN_ANOMALY":200.8781,"EPHEMERIS_TYPE":0,"CLASSIFICATION_TYPE":"U","NORAD_CAT_ID":68014,"ELEMENT_SET_NO":999,"REV_AT_EPOCH":591,"BSTAR":-0.042264182,"MEAN_MOTION_DOT":-0.01087855,"MEAN_MOTION_DDOT":0},{"OBJECT_NAME":"STARLINK-36335","OBJECT_ID":"2026-040A","EPOCH":"2026-03-27T20:23:02.423904","MEAN_MOTION":15.75259164,"ECCENTRICITY":0.00012755,"INCLINATION":97.287,"RA_OF_ASC_NODE":36.1844,"ARG_OF_PERICENTER":92.9276,"MEAN_ANOMALY":267.2135,"EPHEMERIS_TYPE":0,"CLASSIFICATION_TYPE":"U","NORAD_CAT_ID":68015,"ELEMENT_SET_NO":999,"REV_AT_EPOCH":421,"BSTAR":0.0011885305,"MEAN_MOTION_DOT":0.00181507,"MEAN_MOTION_DDOT":0},{"OBJECT_NAME":"STARLINK-36923","OBJECT_ID":"2026-040B","EPOCH":"2026-03-28T14:39:16.410240","MEAN_MOTION":15.75284237,"ECCENTRICITY":0.00025534,"INCLINATION":97.2863,"RA_OF_ASC_NODE":36.9876,"ARG_OF_PERICENTER":65.1799,"MEAN_ANOMALY":294.9731,"EPHEMERIS_TYPE":0,"CLASSIFICATION_TYPE":"U","NORAD_CAT_ID":68016,"ELEMENT_SET_NO":999,"REV_AT_EPOCH":433,"BSTAR":0.0021283386,"MEAN_MOTION_DOT":0.0033131,"MEAN_MOTION_DDOT":0},{"OBJECT_NAME":"STARLINK-36568","OBJECT_ID":"2026-040C","EPOCH":"2026-03-28T14:38:15.669312","MEAN_MOTION":15.75255282,"ECCENTRICITY":0.00028376,"INCLINATION":97.2884,"RA_OF_ASC_NODE":36.9884,"ARG_OF_PERICENTER":74.5215,"MEAN_ANOMALY":285.6363,"EPHEMERIS_TYPE":0,"CLASSIFICATION_TYPE":"U","NORAD_CAT_ID":68017,"ELEMENT_SET_NO":999,"REV_AT_EPOCH":433,"BSTAR":0.001539831,"MEAN_MOTION_DOT":0.00236712,"MEAN_MOTION_DDOT":0}]
